ECHOSTAR 6              
1 26402U 00038A   16214.21438657 -.00000175  00000-0  00000+0 0  9998
2 26402   3.5755  68.8133 0003458  60.7601 161.6468  1.00271904 58740
INTELSAT 9 (IS-9)       
1 26451U 00043A   16214.38972741 -.00000299  00000-0  00000+0 0  9990
2 26451   2.9064  72.9466 0001751  65.7855 268.8760  1.00272775 58679
BRASILSAT B4            
1 26469U 00046A   16212.37652732 -.00000236  00000-0  00000+0 0  9995
2 26469   0.9915  87.0692 0002516  40.3277 232.6098  1.00272271 58456
NILESAT 102             
1 26470U 00046B   16214.09255579 -.00000085  00000-0  00000+0 0  9998
2 26470   1.0158  84.9544 0004133  75.4431 176.0491  1.00272773 58465
ASTRA 2B                
1 26494U 00054A   16213.94500429  .00000126  00000-0  00000+0 0  9998
2 26494   1.5569  79.9907 0003950  59.3991 182.1455  1.00274532 58066
AMC-7 (GE-7)            
1 26495U 00054B   16212.51782275  .00000064  00000-0  00000-0 0  9994
2 26495   0.0125  11.1351 0000928 189.0146 159.8300  1.00271927 58060
NSS-11 (AAP-1)          
1 26554U 00059A   16213.74589671 -.00000371  00000-0  00000-0 0  9998
2 26554   0.0587 274.2546 0002482 201.5390 210.7035  1.00270424  5148
N-SAT-110 (JCSAT-110)   
1 26559U 00060A   16214.42949057 -.00000378  00000-0  00000+0 0  9995
2 26559   0.0399 265.2638 0000640  87.8924 221.9721  1.00270292 57942
AMC-6 (GE-6)            
1 26580U 00067A   16213.32966116 -.00000284  00000-0  00000-0 0  9996
2 26580   0.0234 345.5604 0002781 162.5469 207.9123  1.00270005 57786
INTELSAT 12 (IS-12)     
1 26590U 00068A   16213.75518544  .00000111  00000-0  00000+0 0  9990
2 26590   0.0125 263.9291 0002090 249.0864 113.6300  1.00270837 57620
INTELSAT 1R (IS-1R)     
1 26608U 00072A   16212.19556319 -.00000305  00000-0  00000+0 0  9990
2 26608   0.0640 244.3444 0001410 338.8804 105.4251  1.00270971 57466
ANIK F1                 
1 26624U 00076A   16213.43844143 -.00000100  00000-0  00000+0 0  9998
2 26624   0.0162 143.4350 0002671 351.6051 224.9631  1.00272245 57550
ASTRA 2D                
1 26638U 00081A   16213.18082121  .00000040  00000-0  00000-0 0  9994
2 26638   3.0279  71.5371 0002081  50.5198 309.5013  1.00274444 16735
AMC-8 (GE-8)            
1 26639U 00081B   16214.21311347  .00000078  00000-0  00000+0 0  9995
2 26639   0.0188 352.0708 0002851 124.5586 131.3335  1.00270698 57102
TURKSAT 2A              
1 26666U 01002A   16213.02501129  .00000121  00000-0  00000+0 0  9995
2 26666   0.4885  84.3980 0003611  27.5426 248.0803  1.00272369 56985
SKYNET 4F               
1 26695U 01005B   16214.32100647 -.00000273  00000-0  00000+0 0  9993
2 26695   8.5137  38.9761 0002355  90.5157 262.4843  1.00272586 56719
EUTELSAT 33C            
1 26719U 01011A   16214.12773315  .00000129  00000-0  00000+0 0  9992
2 26719   0.0675 345.4699 0002544 149.2751 254.4517  1.00271181 56414
INTELSAT 10 (IS-10)     
1 26766U 01019A   16214.12337699  .00000099  00000-0  00000+0 0  9999
2 26766   0.8504  86.6964 0001607  40.5937 274.7973  1.00274994 55765
INTELSAT 901 (IS-901)   
1 26824U 01024A   16213.82354676 -.00000167  00000-0  00000-0 0  9998
2 26824   0.0550 273.0602 0002588 236.7198  78.5389  1.00271829 55531
ASTRA 2C                
1 26853U 01025A   16213.74006769  .00000020  00000-0  00000-0 0  9996
2 26853   0.0787 290.7245 0002977 204.1311 141.6152  1.00272469  8902
ARTEMIS                 
1 26863U 01029A   16214.05965792 -.00000040  00000-0  00000+0 0  9998
2 26863  12.3773  36.4657 0003428 120.6791 235.7764  1.00442123 56220
INTELSAT 902 (IS-902)   
1 26900U 01039A   16214.00219735  .00000006  00000-0  00000+0 0  9996
2 26900   0.0087  29.8449 0003107 110.2798 232.6934  1.00272989 54601
EUTELSAT 8 WEST A       
1 26927U 01042A   16213.82371484 -.00000127  00000-0  00000+0 0  9993
2 26927   0.0643   3.3116 0004356 124.9087 105.6524  1.00271534 54357
DIRECTV 4S              
1 26985U 01052A   16213.37756337 -.00000139  00000-0  00000+0 0  9995
2 26985   0.0472 255.8646 0001440 252.6106 195.6434  1.00271370 53812
INSAT-3C                
1 27298U 02002A   16213.93627624 -.00000104  00000-0  00000+0 0  9999
2 27298   0.0240  95.2910 0004923  12.5843 253.1414  1.00272392 53197
ECHOSTAR 7              
1 27378U 02006A   16214.47890646 -.00000027  00000-0  00000+0 0  9992
2 27378   0.0646 272.4090 0000383 227.2787 224.3804  1.00271973 52907
INTELSAT 904 (IS-904)   
1 27380U 02007A   16213.79435125  .00000023  00000-0  00000-0 0  9993
2 27380   0.0588 271.8958 0002916 229.5131 154.3705  1.00271608 15594
TDRS 9                  
1 27389U 02011A   16213.82322501 -.00000127  00000-0  00000+0 0  9999
2 27389   4.5908  83.4547 0014005 232.6250 278.0377  1.00271024 54266
JCSAT-2A                
1 27399U 02015A   16214.46160279 -.00000192  00000-0  00000+0 0  9999
2 27399   0.0254  80.5982 0001302 154.6720  35.3892  1.00272888 52458
ASTRA 3A                
1 27400U 02015B   16213.63935700 -.00000152  00000-0  00000+0 0  9995
2 27400   3.2005  70.3054 0000538 168.0829 191.9448  1.00696732 52540
INTELSAT 903 (IS-903)   
1 27403U 02016A   16214.32100647 -.00000265  00000-0  00000+0 0  9995
2 27403   0.0096  89.3331 0002855  49.7161 252.3497  1.00271150 52486
NSS-7                   
1 27414U 02019A   16213.43089419 -.00000182  00000-0  00000+0 0  9992
2 27414   1.2308  84.8454 0002754  49.4305 310.3004  1.00272406 52381
DIRECTV 5 (TEMPO 1)     
1 27426U 02023A   16213.44623640 -.00000082  00000-0  00000+0 0  9990
2 27426   0.0137  68.6055 0003095  76.7329 214.6817  1.00271223 52133
INTELSAT 905 (IS-905)   
1 27438U 02027A   16213.14947012 -.00000210  00000-0  00000+0 0  9999
2 27438   0.0091 274.2209 0002914 195.0073 229.2797  1.00268011 51781
EXPRESS-A4              
1 27441U 02029A   16213.85487192 -.00000272  00000-0  00000+0 0  9999
2 27441   5.5124  58.6463 0003692  76.1635 268.1570  1.00274600 51798
GALAXY 3C (G-3C)        
1 27445U 02030A   16213.40439367 -.00000177  00000-0  00000+0 0  9991
2 27445   0.0224 330.3166 0001966  16.1546  13.5049  1.00270918 51780
EUTELSAT 5 WEST A       
1 27460U 02035A   16214.15243360 -.00000069  00000-0  00000+0 0  9992
2 27460   0.0398  14.2118 0004546 117.0271 228.7809  1.00272163 51583
N-STAR C                
1 27461U 02035B   16213.73050405 -.00000337  00000-0  00000+0 0  9990
2 27461   4.0326  66.6719 0003994  26.4469 255.6135  1.00269814 51484
EUTELSAT 33D            
1 27499U 02038A   16213.94354677 -.00000068  00000-0  00000+0 0  9996
2 27499   0.1219  76.8391 0003032  84.5997 198.5530  1.00270869 51055
ECHOSTAR 8              
1 27501U 02039A   16214.44110167 -.00000269  00000-0  00000+0 0  9994
2 27501   0.4210  89.9026 0002768  52.3563 250.0937  1.00271789 51114
EUTELSAT 12 WEST A      
1 27508U 02040A   16214.23796257 -.00000271  00000-0  00000+0 0  9993
2 27508   0.0663  15.7262 0002392 134.4301 209.8377  1.00271498 51086
METEOSAT-8 (MSG-1)      
1 27509U 02040B   16214.25368439  .00000086  00000-0  00000+0 0  9996
2 27509   4.2799  59.5764 0000748 141.2742 216.7524  1.00399592 51081
INTELSAT 906 (IS-906)   
1 27513U 02041A   16213.81603829 -.00000012  00000-0  00000-0 0  9999
2 27513   0.0304 254.5994 0002215 246.7263 166.4543  1.00272744 50860
KODAMA (DRTS)           
1 27516U 02042B   16214.05914272 -.00000266  00000-0  00000+0 0  9997
2 27516   4.4593  63.9501 0002619  67.7562 290.4147  1.00270783 50889
KALPANA-1 (METSAT 1)    
1 27525U 02043A   16213.09532649 -.00000109  00000-0  00000+0 0  9991
2 27525   5.8063  57.4059 0012119 218.0275 141.9583  1.00272692 50863
HISPASAT 1D             
1 27528U 02044A   16214.39320209 -.00000243  00000-0  00000+0 0  9995
2 27528   0.0571 290.2257 0001738 187.8786 303.8563  1.00272564 50785
TDRS 10                 
1 27566U 02055A   16213.79035614  .00000053  00000-0  00000+0 0  9993
2 27566   4.4736  59.8589 0005363 206.6406 153.4151  1.00272900 50058
NSS-6                   
1 27603U 02057A   16213.69923285 -.00000296  00000-0  00000-0 0  9997
2 27603   0.0142  66.1784 0001302 111.9876 118.2922  1.00269868 49927
NIMIQ 2                 
1 27632U 02062A   16213.22756061  .00000096  00000-0  00000+0 0  9996
2 27632   1.3237  83.9018 0005137 318.3276  41.3669  0.99502410 49702
INTELSAT 907 (IS-907)   
1 27683U 03007A   16212.22009536 -.00000226  00000-0  00000+0 0  9995
2 27683   0.0160  68.7461 0002504  72.5295 218.7424  1.00270121 49205
INSAT-3A                
1 27714U 03013A   16213.91975670 -.00000284  00000-0  00000+0 0  9999
2 27714   0.1106 269.3178 0006154 190.1605 275.0897  1.00272576 48780
GALAXY 12 (G-12)        
1 27715U 03013B   16214.57022869  .00000032  00000-0  00000+0 0  9996
2 27715   0.0164 261.3630 0002064 259.3194 226.2103  1.00269230 48844
ASIASAT 4               
1 27718U 03014A   16213.54635310 -.00000386  00000-0  00000-0 0  9991
2 27718   0.0221  69.0572 0001131  16.1582 183.1637  1.00274431 48744
HELLAS-SAT 2            
1 27811U 03020A   16214.24454394  .00000126  00000-0  00000+0 0  9991
2 27811   0.0092  21.4002 0003626 103.1093 312.7713  1.00269857 48177
AMC-9 (GE-12)           
1 27820U 03024A   16213.32937148 -.00000241  00000-0  00000+0 0  9995
2 27820   0.0439 285.1464 0003117 210.1198 209.6689  1.00272468 48159
THURAYA-2               
1 27825U 03026A   16213.74708566  .00000105  00000-0  00000-0 0  9997
2 27825   4.6369  27.7747 0004422 102.6588 132.2799  1.00272998 48171
OPTUS C1                
1 27831U 03028B   16213.61035425 -.00000173  00000-0  00000+0 0  9994
2 27831   0.0438 234.7957 0003907 269.8202 180.7547  1.00271770 48147
ECHOSTAR 12 (RAINBOW 1) 
1 27852U 03033A   16214.39371157 -.00000309  00000-0  00000+0 0  9995
2 27852   0.0646 274.1297 0000819 232.3548 244.3071  1.00273619 47820
GALAXY 23 (G-23)        
1 27854U 03034A   16214.41246512 -.00000014  00000-0  00000+0 0  9990
2 27854   0.0162  73.4099 0002927  59.2143 205.3110  1.00272851 52378
